#dP2020 10  4  0  0  0.00000000     289 d+D   IGb14 FIT AIUB
## 2126      0.00000000   300.00000000 59126 0.0000000000000
+   91   G01G02G03G04G05G06G07G08G09G10G11G12G13G15G16G17G18
+        G19G20G21G22G23G24G25G26G27G28G29G30G31G32R01R02R03
+        R04R05R07R08R09R11R12R13R14R15R16R17R18R19R20R21R22
+        R23R24R26E01E02E03E04E05E07E08E09E11E12E13E14E15E18
+        E19E21E24E25E26E27E30E31E33E36C06C07C08C09C10C11C12
+        C13C14C16J01J02J03  0  0  0  0  0  0  0  0  0  0  0
++         5  5  5  5  5  5  5  5  5  5  5  5  5  5  5  5  5
++         5  5  5  5  5  5  5  5  5  5  5  5  5  5  6  5  5
++         5  5  5  5  5  5  5  5  5  5  5  5  5  5  5  5  5
++         5  5  5  5  5  5  5  5  5  5  5  5  5  5  5  5  5
++         5  5  5  5  5  5  5  5  5  5  5  5  5  6  5  5  5
++         5  5  5  5  5  5  0  0  0  0  0  0  0  0  0  0  0
%c M  cc GPS ccc cccc cccc cccc cccc ccccc ccccc ccccc ccccc
%c cc cc ccc ccc cccc cccc cccc cccc ccccc ccccc ccccc ccccc
%f  1.2500000  1.025000000  0.00000000000  0.000000000000000
%f  0.0000000  0.000000000  0.00000000000  0.000000000000000
%i    0    0    0    0      0      0      0      0         0
%i    0    0    0    0      0      0      0      0         0
/* Center for Orbit Determination in Europe (CODE)                              
/* MGEX orbits and clocks for year-day 2020-2780                                
/* Middle day of a 3-day long-arc multi-GNSS solution                           
/* Systems considered: GPS/GLONASS/Galileo/BeiDou/QZSS                          
/* Product reference - DOI 10.7892/boris.75882.3                                
/* PCV:IGS14      OL/AL:FES2014b NONE     YN ORB:CoN CLK:CoN                    
*  2020 10  4  4 30  0.00000000
PG01   6417.634138 -17644.866222 -18887.408400     34.466186
PG02 -21451.557706  15535.171859   2387.559665   -524.999230
PG03  -5010.180940 -18303.854248 -18705.445125   -316.729434
PG04    493.312229 -26478.602710   1715.342830   -141.631709
PG05 -15586.558932   7473.559836  20062.505957    -22.572769
PG06 -23579.581445   3876.497254 -11579.866010   -330.743118
PG07 -11485.696573 -11255.960591  21524.101964   -386.080931
PG08   6416.330645 -24078.246264   8812.259743    -50.229184
PG09  -8516.874987 -21816.722785  12452.833710   -295.241017
PG10  23839.785527  11180.633902  -4319.836705   -470.912605
PG11   9862.368958 -23961.817766  -7095.318738   -146.652218
PG12   1938.688061  17914.021279 -19797.119882     58.756288
PG13 -13002.638087  17861.712953  14532.572768     51.348845
PG15  -3666.084041  24916.125966   7479.045414   -199.336700
PG16  14786.308991  -6581.937991  20928.861323   -217.667349
PG17 -13880.349707  -5558.891236 -21528.867177    334.903512
PG18  12019.940980  10410.638334  21269.947969    301.319707
PG19 -15128.438098   2252.199251 -21996.769396    -96.423878
PG20  20384.372255  15321.078649   7797.950990    526.522250
PG21  21166.320792 -15428.967629  -2502.257906     54.033995
PG22   2968.248316 -15883.232226 -20900.536845   -747.425699
PG23  20324.777223  16241.214174   5360.592745     79.371071
PG24  -8520.234262  19292.513823 -16124.126163    -19.366557
PG25  13999.259276  19021.370165 -12649.159403     -0.009330
PG26  22978.271156   1966.286984  13348.445251    289.492816
PG27  12239.321121 -15495.475911  17448.482338   -410.431470
PG28 -22575.871101 -12415.789808  -5509.520519    671.697550
PG29   4523.417725  23950.086489  10459.191428   -208.245236
PG30 -19930.011427  -4177.291543  17214.341738   -313.560689
PG31  24584.422795  -4885.150788  -9509.674830    -72.718754
PG32  14961.736765   4537.165183 -21399.473953    353.777677
PR01  14025.905529  20647.532581  -5230.354827     68.497082
PR02  13346.278451   3969.411272 -21352.786541    448.379917
PR03   4506.238232 -13325.839766 -21230.450410     23.148901
PR04  -6920.207792 -22786.663550  -9112.116661     56.731386
PR05 -14276.235495 -19487.746409   8158.522593     58.672350
PR07  -4111.668558  13899.252826  21031.211516    -40.584286
PR08   6820.910674  22827.509565   9186.929797    -54.964583
PR09 -25381.097191    414.866938  -2845.912925      0.411697
PR11   3518.718715  11163.069799 -22637.162267    -39.915873
PR12  19777.343746   7612.607497 -14177.533727    168.963634
PR13  25368.170106   -389.278275   2611.571637    -44.748804
PR14  15887.335101  -8092.355508  18253.301919     56.194033
PR15  -2534.150522 -11041.316621  22881.909879    106.984830
PR16 -20331.626065  -7056.810502  13580.352187     -6.950285
PR17  15209.091751 -20117.196037   4004.004468    363.372753
PR18   6934.064643 -20995.568297 -12668.081687     51.536969
PR19  -4313.217832 -11333.998697 -22444.284411   -113.936601
PR20 -15239.380209   7040.612155 -19212.093689   -423.335501
PR21 -14920.484783  20454.508999  -2945.083148   -156.647058
PR22  -6318.583997  20628.019414  13663.194515    -75.967041
PR23   9381.912777   4655.341678  23250.402584    336.100138
PR24  15698.516730  -7611.336681  18634.519178     15.551675
PR26 -13066.448290   2130.418547 -21784.658328   -362.402694
PE01 -14407.414206  11560.702811 -23118.649737   -954.078877
PE02  14307.959368 -11627.812326  23167.364487    166.313040
PE03   8662.732917 -21632.352901 -18267.590227   -349.862222
PE04   4734.629949  29152.247789   1957.475521   -620.019599
PE05  17164.901967  -1304.093165 -24082.501826   -340.783503
PE07 -15572.707684 -19615.271852  15787.460071   -444.209263
PE08  -5097.157079 -29116.108819  -1714.572716   6111.586540
PE09  15636.549182  19412.943244 -15951.057646   5910.244610
PE11  14563.656372   8362.015848  24366.306185   5972.516610
PE12  -4047.651677  21479.099391  19962.547388   5573.976260
PE13 -14317.434458  -8502.239048 -24469.139839    404.099290
PE14   4491.231447  22882.126461   8032.313525  -1178.146310
PE15   3854.416620 -21389.446688 -20094.301223    849.972977
PE18 -13708.425883 -21425.573047 -19421.863503  -1287.030970
PE19  -9886.786967  19784.533617  19671.901386     94.354661
PE21 -27516.877355  -1340.482525 -10821.950042   -624.843440
PE24  24587.597941  14161.842993  -8463.833730   -510.862332
PE25  27561.021587   1430.661814  10714.324774   -517.623326
PE26 -24261.391961   9631.718718 -13941.356363   2653.240790
PE27 -24898.965425 -13819.910658   8084.345864    120.772017
PE30  -6947.366563 -18146.329166  22328.095822   3533.643630
PE31   7689.646438  18097.725581 -22107.821716   -474.575161
PE33 -19744.306148  21698.741552   3921.168532   -462.626501
PE36  24069.451675  -9374.110492  14464.140363    499.098944
PC06 -15668.283937  37922.247924  11080.704052     28.960650
PC07 -11913.079331  23634.836091 -32530.174757    -68.464989
PC08 -24741.346902  24210.015577  23886.691653   -577.224973
PC09  -6997.556867  41563.619063  -4193.958070    850.736588
PC10   3369.084444  30546.650729 -28470.045304   -172.048260
PC11 -14945.260566  22289.920015  -7476.249363   -662.023905
PC12 -17413.525625   6030.891111 -20909.268597    539.151650
PC13 -10026.628330  25901.868576  31700.663270    678.539232
PC14  -9619.952105  13282.383479  22590.193656    -12.836180
PC16 -12788.232480  39562.860801   7667.853451   -592.867933
PJ01 -25190.506679  23148.193328  29604.590501   -342.572367
PJ02 -31126.414161  15010.917679 -19633.982889     -4.610358
PJ03 -23568.651567  31695.014817 -10108.549419     -1.648819
EOF
